SL-16 R/B               
1 22803U 93059B   26114.84865198  .00000058  00000+0  52510-4 0  9993
2 22803  70.9892 273.7842 0015899 146.1727 214.0414 14.17238361686074
ARIANE 40 R/B           
1 22830U 93061H   26114.78635860  .00000130  00000+0  63482-4 0  9991
2 22830  98.4846 182.7461 0011561 143.1932 217.0048 14.32883761700701
COSMOS 2278             
1 23087U 94023A   26114.85095323  .00000226  00000+0  14264-3 0  9996
2 23087  71.0533  78.5166 0010438 309.0343  50.9850 14.14386842651338
SL-16 R/B               
1 23088U 94023B   26114.87659069 -.00000093  00000+0 -23497-4 0  9995
2 23088  71.0000 333.8922 0005198 243.1808 116.8784 14.15015338652627
SL-16 R/B               
1 23343U 94074B   26114.65977454  .00000295  00000+0  46133-4 0  9996
2 23343  97.7040 143.6010 0008044  75.6499  38.5852 14.79454885694044
SL-16 R/B               
1 23405U 94077B   26114.84019987  .00000114  00000+0  82973-4 0  9999
2 23405  70.9827 255.3925 0000478 127.8853 232.2313 14.15572059622761
ARIANE 40+ R/B          
1 23561U 95021B   26114.83253487  .00000193  00000+0  75497-4 0  9996
2 23561  98.4432 185.6730 0006788  14.8901  98.8385 14.39802663625883
SL-16 R/B               
1 23705U 95058B   26114.84942110 -.00000127  00000+0 -40504-4 0  9995
2 23705  71.0204  83.3414 0010901  40.5516 319.6417 14.15505154574387
SL-16 R/B               
1 24298U 96051B   26114.63300664  .00000086  00000+0  73378-4 0  9993
2 24298  70.7599  77.9926 0012501  68.5888 291.6564 14.12427436528132
ORBVIEW 2 (SEASTAR)     
1 24883U 97037A   26114.42072823  .00000208  00000+0  88566-4 0  9999
2 24883  98.8641 279.9624 0001122 296.3332  63.7737 14.35524279515035
SL-16 R/B               
1 25400U 98043G   26114.82875488  .00000048  00000+0  39079-4 0  9992
2 25400  98.8325  68.5416 0008890 237.7370 122.2949 14.26059633445564
SL-16 R/B               
1 25407U 98045B   26114.34324683 -.00000247  00000+0 -10048-3 0  9991
2 25407  71.0096  85.5636 0009264 305.0993  54.9261 14.16197210433566
ISS (ZARYA)             
1 25544U 98067A   26114.65157122  .00009395  00000+0  17883-3 0  9998
2 25544  51.6320 205.0750 0006889 346.1357  13.9441 15.48932066563457
CZ-4B R/B               
1 25732U 99025C   26114.74336022  .00000029  00000+0  34861-4 0  9991
2 25732  98.6537 157.9138 0036559 210.8792 261.0129 14.18273802394698
OKEAN-O                 
1 25860U 99039A   26114.68194529  .00000425  00000+0  62488-4 0  9991
2 25860  97.9358 174.0846 0001482 115.3153 244.8212 14.80400589441199
SL-16 R/B               
1 25861U 99039B   26114.75374075  .00000373  00000+0  53938-4 0  9998
2 25861  97.9878 173.7594 0016145 106.8449 253.4536 14.81788534443689
DELTA 2 R/B             
1 25876U 99041E   26114.31233997  .00000466  00000+0  11475-3 0  9998
2 25876  51.7593 119.0186 0502497 122.9626 242.0657 14.11926144369479
