[{"OBJECT_NAME":"SL-16 R/B","OBJECT_ID":"1993-059B","EPOCH":"2026-04-24T20:22:03.531072","MEAN_MOTION":14.17238361,"ECCENTRICITY":0.0015899,"INCLINATION":70.9892,"RA_OF_ASC_NODE":273.7842,"ARG_OF_PERICENTER":146.1727,"MEAN_ANOMALY":214.0414,"EPHEMERIS_TYPE":0,"CLASSIFICATION_TYPE":"U","NORAD_CAT_ID":22803,"ELEMENT_SET_NO":999,"REV_AT_EPOCH":68607,"BSTAR":5.251e-5,"MEAN_MOTION_DOT":5.8e-7,"MEAN_MOTION_DDOT":0},{"OBJECT_NAME":"ARIANE 40 R/B","OBJECT_ID":"1993-061H","EPOCH":"2026-04-24T18:52:21.383040","MEAN_MOTION":14.32883761,"ECCENTRICITY":0.0011561,"INCLINATION":98.4846,"RA_OF_ASC_NODE":182.7461,"ARG_OF_PERICENTER":143.1932,"MEAN_ANOMALY":217.0048,"EPHEMERIS_TYPE":0,"CLASSIFICATION_TYPE":"U","NORAD_CAT_ID":22830,"ELEMENT_SET_NO":999,"REV_AT_EPOCH":70070,"BSTAR":6.3482e-5,"MEAN_MOTION_DOT":1.3e-6,"MEAN_MOTION_DDOT":0},{"OBJECT_NAME":"COSMOS 2278","OBJECT_ID":"1994-023A","EPOCH":"2026-04-24T20:25:22.359072","MEAN_MOTION":14.14386842,"ECCENTRICITY":0.0010438,"INCLINATION":71.0533,"RA_OF_ASC_NODE":78.5166,"ARG_OF_PERICENTER":309.0343,"MEAN_ANOMALY":50.985,"EPHEMERIS_TYPE":0,"CLASSIFICATION_TYPE":"U","NORAD_CAT_ID":23087,"ELEMENT_SET_NO":999,"REV_AT_EPOCH":65133,"BSTAR":0.00014264,"MEAN_MOTION_DOT":2.26e-6,"MEAN_MOTION_DDOT":0},{"OBJECT_NAME":"SL-16 R/B","OBJECT_ID":"1994-023B","EPOCH":"2026-04-24T21:02:17.435616","MEAN_MOTION":14.15015338,"ECCENTRICITY":0.0005198,"INCLINATION":71,"RA_OF_ASC_NODE":333.8922,"ARG_OF_PERICENTER":243.1808,"MEAN_ANOMALY":116.8784,"EPHEMERIS_TYPE":0,"CLASSIFICATION_TYPE":"U","NORAD_CAT_ID":23088,"ELEMENT_SET_NO":999,"REV_AT_EPOCH":65262,"BSTAR":-2.3497e-5,"MEAN_MOTION_DOT":-9.3e-7,"MEAN_MOTION_DDOT":0},{"OBJECT_NAME":"SL-16 R/B","OBJECT_ID":"1994-074B","EPOCH":"2026-04-24T15:50:04.520256","MEAN_MOTION":14.79454885,"ECCENTRICITY":0.0008044,"INCLINATION":97.704,"RA_OF_ASC_NODE":143.601,"ARG_OF_PERICENTER":75.6499,"MEAN_ANOMALY":38.5852,"EPHEMERIS_TYPE":0,"CLASSIFICATION_TYPE":"U","NORAD_CAT_ID":23343,"ELEMENT_SET_NO":999,"REV_AT_EPOCH":69404,"BSTAR":4.6133e-5,"MEAN_MOTION_DOT":2.95e-6,"MEAN_MOTION_DDOT":0},{"OBJECT_NAME":"SL-16 R/B","OBJECT_ID":"1994-077B","EPOCH":"2026-04-24T20:09:53.268768","MEAN_MOTION":14.15572059,"ECCENTRICITY":4.78e-5,"INCLINATION":70.9827,"RA_OF_ASC_NODE":255.3925,"ARG_OF_PERICENTER":127.8853,"MEAN_ANOMALY":232.2313,"EPHEMERIS_TYPE":0,"CLASSIFICATION_TYPE":"U","NORAD_CAT_ID":23405,"ELEMENT_SET_NO":999,"REV_AT_EPOCH":62276,"BSTAR":8.2973e-5,"MEAN_MOTION_DOT":1.14e-6,"MEAN_MOTION_DDOT":0},{"OBJECT_NAME":"ARIANE 40+ R/B","OBJECT_ID":"1995-021B","EPOCH":"2026-04-24T19:58:51.012768","MEAN_MOTION":14.39802663,"ECCENTRICITY":0.0006788,"INCLINATION":98.4432,"RA_OF_ASC_NODE":185.673,"ARG_OF_PERICENTER":14.8901,"MEAN_ANOMALY":98.8385,"EPHEMERIS_TYPE":0,"CLASSIFICATION_TYPE":"U","NORAD_CAT_ID":23561,"ELEMENT_SET_NO":999,"REV_AT_EPOCH":62588,"BSTAR":7.5497e-5,"MEAN_MOTION_DOT":1.93e-6,"MEAN_MOTION_DDOT":0},{"OBJECT_NAME":"SL-16 R/B","OBJECT_ID":"1995-058B","EPOCH":"2026-04-24T20:23:09.983040","MEAN_MOTION":14.15505154,"ECCENTRICITY":0.0010901,"INCLINATION":71.0204,"RA_OF_ASC_NODE":83.3414,"ARG_OF_PERICENTER":40.5516,"MEAN_ANOMALY":319.6417,"EPHEMERIS_TYPE":0,"CLASSIFICATION_TYPE":"U","NORAD_CAT_ID":23705,"ELEMENT_SET_NO":999,"REV_AT_EPOCH":57438,"BSTAR":-4.0504e-5,"MEAN_MOTION_DOT":-1.27e-6,"MEAN_MOTION_DDOT":0},{"OBJECT_NAME":"SL-16 R/B","OBJECT_ID":"1996-051B","EPOCH":"2026-04-24T15:11:31.773696","MEAN_MOTION":14.12427436,"ECCENTRICITY":0.0012501,"INCLINATION":70.7599,"RA_OF_ASC_NODE":77.9926,"ARG_OF_PERICENTER":68.5888,"MEAN_ANOMALY":291.6564,"EPHEMERIS_TYPE":0,"CLASSIFICATION_TYPE":"U","NORAD_CAT_ID":24298,"ELEMENT_SET_NO":999,"REV_AT_EPOCH":52813,"BSTAR":7.3378e-5,"MEAN_MOTION_DOT":8.6e-7,"MEAN_MOTION_DDOT":0},{"OBJECT_NAME":"ORBVIEW 2 (SEASTAR)","OBJECT_ID":"1997-037A","EPOCH":"2026-04-24T10:05:50.919072","MEAN_MOTION":14.35524279,"ECCENTRICITY":0.0001122,"INCLINATION":98.8641,"RA_OF_ASC_NODE":279.9624,"ARG_OF_PERICENTER":296.3332,"MEAN_ANOMALY":63.7737,"EPHEMERIS_TYPE":0,"CLASSIFICATION_TYPE":"U","NORAD_CAT_ID":24883,"ELEMENT_SET_NO":999,"REV_AT_EPOCH":51503,"BSTAR":8.8566e-5,"MEAN_MOTION_DOT":2.08e-6,"MEAN_MOTION_DDOT":0},{"OBJECT_NAME":"SL-16 R/B","OBJECT_ID":"1998-043G","EPOCH":"2026-04-24T19:53:24.421632","MEAN_MOTION":14.26059633,"ECCENTRICITY":0.000889,"INCLINATION":98.8325,"RA_OF_ASC_NODE":68.5416,"ARG_OF_PERICENTER":237.737,"MEAN_ANOMALY":122.2949,"EPHEMERIS_TYPE":0,"CLASSIFICATION_TYPE":"U","NORAD_CAT_ID":25400,"ELEMENT_SET_NO":999,"REV_AT_EPOCH":44556,"BSTAR":3.9079e-5,"MEAN_MOTION_DOT":4.8e-7,"MEAN_MOTION_DDOT":0},{"OBJECT_NAME":"SL-16 R/B","OBJECT_ID":"1998-045B","EPOCH":"2026-04-24T08:14:16.526112","MEAN_MOTION":14.1619721,"ECCENTRICITY":0.0009264,"INCLINATION":71.0096,"RA_OF_ASC_NODE":85.5636,"ARG_OF_PERICENTER":305.0993,"MEAN_ANOMALY":54.9261,"EPHEMERIS_TYPE":0,"CLASSIFICATION_TYPE":"U","NORAD_CAT_ID":25407,"ELEMENT_SET_NO":999,"REV_AT_EPOCH":43356,"BSTAR":-0.00010048,"MEAN_MOTION_DOT":-2.47e-6,"MEAN_MOTION_DDOT":0},{"OBJECT_NAME":"ISS (ZARYA)","OBJECT_ID":"1998-067A","EPOCH":"2026-04-24T15:38:15.753408","MEAN_MOTION":15.48932066,"ECCENTRICITY":0.0006889,"INCLINATION":51.632,"RA_OF_ASC_NODE":205.075,"ARG_OF_PERICENTER":346.1357,"MEAN_ANOMALY":13.9441,"EPHEMERIS_TYPE":0,"CLASSIFICATION_TYPE":"U","NORAD_CAT_ID":25544,"ELEMENT_SET_NO":999,"REV_AT_EPOCH":56345,"BSTAR":0.00017883,"MEAN_MOTION_DOT":9.395e-5,"MEAN_MOTION_DDOT":0},{"OBJECT_NAME":"CZ-4B R/B","OBJECT_ID":"1999-025C","EPOCH":"2026-04-24T17:50:26.323008","MEAN_MOTION":14.18273802,"ECCENTRICITY":0.0036559,"INCLINATION":98.6537,"RA_OF_ASC_NODE":157.9138,"ARG_OF_PERICENTER":210.8792,"MEAN_ANOMALY":261.0129,"EPHEMERIS_TYPE":0,"CLASSIFICATION_TYPE":"U","NORAD_CAT_ID":25732,"ELEMENT_SET_NO":999,"REV_AT_EPOCH":39469,"BSTAR":3.4861e-5,"MEAN_MOTION_DOT":2.9e-7,"MEAN_MOTION_DDOT":0},{"OBJECT_NAME":"OKEAN-O","OBJECT_ID":"1999-039A","EPOCH":"2026-04-24T16:22:00.073056","MEAN_MOTION":14.80400589,"ECCENTRICITY":0.0001482,"INCLINATION":97.9358,"RA_OF_ASC_NODE":174.0846,"ARG_OF_PERICENTER":115.3153,"MEAN_ANOMALY":244.8212,"EPHEMERIS_TYPE":0,"CLASSIFICATION_TYPE":"U","NORAD_CAT_ID":25860,"ELEMENT_SET_NO":999,"REV_AT_EPOCH":44119,"BSTAR":6.2488e-5,"MEAN_MOTION_DOT":4.25e-6,"MEAN_MOTION_DDOT":0},{"OBJECT_NAME":"SL-16 R/B","OBJECT_ID":"1999-039B","EPOCH":"2026-04-24T18:05:23.200800","MEAN_MOTION":14.81788534,"ECCENTRICITY":0.0016145,"INCLINATION":97.9878,"RA_OF_ASC_NODE":173.7594,"ARG_OF_PERICENTER":106.8449,"MEAN_ANOMALY":253.4536,"EPHEMERIS_TYPE":0,"CLASSIFICATION_TYPE":"U","NORAD_CAT_ID":25861,"ELEMENT_SET_NO":999,"REV_AT_EPOCH":44368,"BSTAR":5.3938e-5,"MEAN_MOTION_DOT":3.73e-6,"MEAN_MOTION_DDOT":0},{"OBJECT_NAME":"DELTA 2 R/B","OBJECT_ID":"1999-041E","EPOCH":"2026-04-24T07:29:46.173408","MEAN_MOTION":14.11926144,"ECCENTRICITY":0.0502497,"INCLINATION":51.7593,"RA_OF_ASC_NODE":119.0186,"ARG_OF_PERICENTER":122.9626,"MEAN_ANOMALY":242.0657,"EPHEMERIS_TYPE":0,"CLASSIFICATION_TYPE":"U","NORAD_CAT_ID":25876,"ELEMENT_SET_NO":999,"REV_AT_EPOCH":36947,"BSTAR":0.00011475,"MEAN_MOTION_DOT":4.66e-6,"MEAN_MOTION_DDOT":0}]
